#aV2013  6  3  0  0  0.00000000     288 DD+AD WGS84 FIT  NGA
## 1743  86400.00000000   300.00000000 56446 0.0000000000000
+   31     1  2  3  4  5  6  7  8  9 10 11 12 13 14 15 16 17
+         18 19 20 21 22 23 24 25 26 27 28 29 31 32  0  0  0
+          0  0  0  0  0  0  0  0  0  0  0  0  0  0  0  0  0
+          0  0  0  0  0  0  0  0  0  0  0  0  0  0  0  0  0
+          0  0  0  0  0  0  0  0  0  0  0  0  0  0  0  0  0
++         2  2  2  2  2  2  2  2  2  2  2  2  2  2  2  2  2
++         2  2  2  2  2  2  2  2  2  2  2  2  2  2  2  0  0
++         0  0  0  0  0  0  0  0  0  0  0  0  0  0  0  0  0
++         0  0  0  0  0  0  0  0  0  0  0  0  0  0  0  0  0
++         0  0  0  0  0  0  0  0  0  0  0  0  0  0  0  0  0
%c cc cc ccc ccc cccc cccc cccc cccc ccccc ccccc ccccc ccccc
%c cc cc ccc ccc cccc cccc cccc cccc ccccc ccccc ccccc ccccc
%f  0.0000000  0.000000000  0.00000000000  0.000000000000000
%f  0.0000000  0.000000000  0.00000000000  0.000000000000000
%i    0    0    0    0      0      0      0      0         0
%i    0    0    0    0      0      0      0      0         0
/*      NGA, ST. LOUIS,MO.                                  
/*   EPHEMERIS COMPUTED FROM  1 DAYS OF DATA
/*   EPOCHA SMOOTHER  
/* CCCCCCCCCCCCCCCCCCCCCCCCCCCCCCCCCCCCCCCCCCCCCCCCCCCCCCCCC
*  2013  6  3  3  0  0.00000000                                                 
P  1  22006.727134  12243.896662   8566.811551     33.103671                    
V  1   6231.918783   9272.585124 -29118.382007      0.043450                    
P  2 -10267.776642 -21441.350739  12563.849384    435.198762                    
V  2  13192.819276   8457.272784  25141.676244      0.018278                    
P  3   7805.265389  14022.655808 -21687.707652    215.232296                    
V  3 -23863.877375  11361.093658  -1054.801045      0.049175                    
P  4    795.408515 -18184.066942  18969.826741    235.249962                    
V  4  19527.255421  15483.770676  14092.750332      0.103374                    
P  5  -3545.124085 -23379.387604 -11976.746379   -396.162687                    
V  5   6035.323633 -14270.537682  26264.971584     -0.008560                    
P  6    776.202430  16071.364226 -21000.364258    204.660774                    
V  6 -25516.861551   8820.795074   6153.811088     -0.167993                    
P  7  18124.795706   -842.473286 -19460.123508    220.835398                    
V  7  17088.782436  17807.191808  14817.699298      0.042359                    
P  8  10888.711679  -9340.178111 -22240.336032      6.528415                    
V  8  18761.385220  21339.634327   -353.553853      0.001873                    
P  9    146.391236 -17993.882231 -20049.425406    245.225005                    
V  9  18408.772923  15792.833476 -14521.589086      0.026222                    
P 10   8572.177059 -24625.434289   3395.921201    -82.111536                    
V 10   2475.712746   5477.574198  31241.683350     -0.013726                    
P 11  23252.576719  13042.154480  -1982.767768   -387.943668                    
V 11  -3905.694319   3415.139195 -29771.778049     -0.035665                    
P 12 -12251.693892  -9621.755333  21504.312466    137.237825                    
V 12   7279.474209 -26308.704790  -7406.680478      0.020868                    
P 13  26221.230554  -4456.315863   1263.547031    113.208186                    
V 13  -1324.071362   2354.281077  32069.294009     -0.036269                    
P 14 -16140.712734  14509.773544  15406.418757    220.606146                    
V 14 -19129.823305   2673.477399 -23000.766449     -0.002736                    
P 15 -19544.772455  -6392.682739 -16978.190972   -121.715040                    
V 15  19675.482832  -8791.493116 -19117.066570     -0.015872                    
P 16   1644.732325  23487.263084 -11967.782982   -251.669472                    
V 16  -6012.669816  14148.158314  27324.624544      0.003023                    
P 17  16185.463368 -14961.184162  14867.316486     12.935975                    
V 17  18481.710986  -2804.552479 -23514.587666     -0.039527                    
P 18 -15305.387499  14354.900174 -15662.199709    256.759117                    
V 18   1778.160405 -21010.311376 -20815.530341      0.019516                    
P 19  15889.896412  10133.948626 -18973.915032   -378.002020                    
V 19 -23000.310940   6019.781882 -15704.593639     -0.030120                    
P 20  15322.979101   4183.646317  21118.979368    101.447242                    
V 20  -4820.948638  26917.886531  -1749.900735      0.020944                    
P 21 -16387.206863   4959.577721 -19852.605637   -301.038444                    
V 21 -18702.551617 -18763.679227   9933.171214     -0.020924                    
P 22 -10563.069166  23274.893655  -6738.657910    170.217820                    
V 22  -1799.229145  -9539.784625 -29420.678773      0.014696                    
P 23  24469.108430    744.307442  10860.225206     79.802535                    
V 23 -12355.298480   6018.366937  27208.524552     -0.035796                    
P 24 -21517.067634 -14747.383836   5104.348218     -7.492099                    
V 24  -2931.272820  -6422.836056 -30795.235048     -0.006702                    
P 25 -15579.240245   4175.345678  21029.274745    104.924525                    
V 25   5059.734558 -26339.184573   9051.829602      0.044763                    
P 26  -6003.820227 -14093.829501 -22364.749968     38.247030                    
V 26  26192.708851  -5570.016443  -3305.605102      0.157327                    
P 27   4646.315740  14504.821554 -21761.205185     -0.161224                    
V 27 -26361.649102   8273.269071   -109.947992     -0.008824                    
P 28  12646.585634 -20927.597216  -9563.014197    264.038845                    
V 28  -1518.974860  13108.238817 -29123.095258      0.033256                    
P 29 -25973.010071   4667.249728   2823.611406    441.431842                    
V 29   2750.351734  -3460.561628  31637.746162      0.034780                    
P 31   -226.721329  18060.939395  19540.205605    316.487384                    
V 31 -18346.272712 -16267.140483  15223.868130      0.012268                    
P 32  10402.930135  14446.848706  19992.718934   -558.332883                    
V 32  -8530.194261  23509.155197 -12115.147438     -0.009331                    
EOF
